{"fetched_at":"2026-03-30T06:02:59Z","count":15439,"tles":[{"name":"STARLINK-32598","line1":"1 62046U 24216Q   26087.86404153  .00024403  00000+0  89305-3 0  9997","line2":"2 62046  43.0019 147.5608 0000749 282.8317  77.2451 15.27592315 76817","category":"Starlink"}]}